     2.11           N: GPS NAV DATA                         RINEX VERSION / TYPE
teqc  2018Dec12     gpsops              20220329 01:04:00UTCPGM / RUN BY / DATE
Linux 2.6.32-573.12.1.x86_64|x86_64|gcc -static|Linux 64|=+ COMMENT
CHPI                                    MARKER NAME         COMMENT
41609M003                               MARKER NUMBER       COMMENT
4164613.9484 -4162456.9866 -2445028.7316                    COMMENT
                                                            COMMENT
This data is provided as a public service by NASA/JPL.      COMMENT
No warranty is expressed or implied regarding suitability   COMMENT
for use.  For further information, contact:                 COMMENT
Dave Stowers, NASA/JPL m/s 238-600                          COMMENT
4800 Oak Grove Drive, Pasadena CA 91109 USA                 COMMENT
                                                            END OF HEADER
27 22  3 28 21 59 44.0 1.683030277491D-04 1.102762325900D-11 0.000000000000D+00
    5.000000000000D+00 1.565625000000D+01 4.085884479203D-09-2.637382158536D+00
    6.332993507385D-07 1.045129110571D-02 1.197122037411D-05 5.153656518936D+03
    1.655840000000D+05 4.284083843231D-08 2.561007424673D+00-2.123415470123D-07
    9.730715277178D-01 1.542500000000D+02 6.575257244028D-01-7.648175720075D-09
   -2.171519023912D-10 1.000000000000D+00 2.203000000000D+03 0.000000000000D+00
    2.000000000000D+00 0.000000000000D+00 1.396983861923D-09 5.000000000000D+00
    1.584180000000D+05 4.000000000000D+00
 2 22  3 28 22  0  0.0-6.527244113386D-04-3.410605131648D-13 0.000000000000D+00
    5.600000000000D+01 9.134375000000D+01 4.503759028213D-09 1.572992292643D+00
    4.274770617485D-06 2.055269468110D-02 5.699694156647D-06 5.153632492065D+03
    1.656000000000D+05 2.756714820862D-07-2.751926233254D+00-4.898756742477D-07
    9.657177910966D-01 2.674062500000D+02-1.428454713673D+00-8.119266771480D-09
    2.785830326729D-10 1.000000000000D+00 2.203000000000D+03 0.000000000000D+00
    2.000000000000D+00 0.000000000000D+00-1.769512891769D-08 5.600000000000D+01
    1.592880000000D+05 4.000000000000D+00
20 22  3 28 22  0  0.0 5.160933360457D-04-2.273736754432D-13 0.000000000000D+00
    6.700000000000D+01-5.675000000000D+01 5.207359764579D-09 2.419559152716D+00
   -2.931803464890D-06 4.928605514579D-03 2.253800630569D-06 5.153536216736D+03
    1.656000000000D+05-1.229345798492D-07-1.782900267970D+00 6.705522537231D-08
    9.419806988543D-01 3.290625000000D+02-3.130231864390D+00-8.673575574952D-09
   -2.678683006471D-10 1.000000000000D+00 2.203000000000D+03 0.000000000000D+00
    2.000000000000D+00 0.000000000000D+00-8.381903171539D-09 6.700000000000D+01
    1.597920000000D+05 4.000000000000D+00
14 22  3 28 22 44 32.0-9.808782488108D-05-3.296918293927D-12 0.000000000000D+00
    1.930000000000D+02-2.206250000000D+01 5.061282251293D-09 5.663379267965D-01
   -1.141801476479D-06 1.614689477719D-03 5.366280674934D-06 5.153649068832D+03
    1.682720000000D+05-3.911554813385D-08 1.553862915439D+00 2.421438694000D-08
    9.529080488337D-01 2.726875000000D+02 3.034951029732D+00-8.382492021582D-09
   -2.960837616486D-10 1.000000000000D+00 2.203000000000D+03 0.000000000000D+00
    2.000000000000D+00 0.000000000000D+00-7.450580596924D-09 7.050000000000D+02
    1.611180000000D+05 4.000000000000D+00
28 22  3 28 22  0  0.0 3.747423179448D-04-1.136868377216D-12 0.000000000000D+00
    5.900000000000D+01-2.018750000000D+01 4.578047836925D-09-2.190773923876D+00
   -7.320195436478D-07 1.668454555329D-02 6.038695573807D-06 5.153684326172D+03
    1.656000000000D+05 1.322478055954D-07 1.607920705266D+00 3.390014171600D-07
    9.685766768092D-01 2.628125000000D+02-1.283073029508D+00-7.863184676061D-09
   -3.103700710164D-10 1.000000000000D+00 2.203000000000D+03 0.000000000000D+00
    2.800000000000D+00 6.300000000000D+01-1.117587089539D-08 5.900000000000D+01
    1.618980000000D+05 4.000000000000D+00
 5 22  3 28 22  0  0.0-7.631769403815D-05-1.364242052659D-12 0.000000000000D+00
    6.100000000000D+01-7.981250000000D+01 4.746269129732D-09-2.189417238519D+00
   -4.068017005920D-06 5.877200048417D-03 2.915039658546D-06 5.153691726685D+03
    1.656000000000D+05 3.911554813385D-08-1.668060410234D+00 3.725290298462D-09
    9.597051407370D-01 3.221250000000D+02 1.009530530084D+00-8.393206753608D-09
   -2.600108304947D-10 1.000000000000D+00 2.203000000000D+03 0.000000000000D+00
    2.000000000000D+00 0.000000000000D+00-1.117587089539D-08 6.100000000000D+01
    1.637880000000D+05 4.000000000000D+00
17 22  3 28 22  0  0.0 5.932506173849D-04 4.888534022029D-12 0.000000000000D+00
    8.100000000000D+01 4.200000000000D+01 3.928377918423D-09-2.707500212674D+00
    2.281740307808D-06 1.348732993938D-02 1.139938831329D-05 5.153783958435D+03
    1.656000000000D+05 1.713633537292D-07 2.623746430782D+00 1.471489667892D-07
    9.795624367188D-01 1.675312500000D+02-1.491790085651D+00-7.436738341431D-09
   -1.575065607805D-10 1.000000000000D+00 2.203000000000D+03 0.000000000000D+00
    2.000000000000D+00 0.000000000000D+00-1.117587089539D-08 8.100000000000D+01
    1.648080000000D+05 4.000000000000D+00
14 22  3 29  0  0  0.0-9.810272604227D-05-3.296918293927D-12 0.000000000000D+00
    1.940000000000D+02-2.421875000000D+01 5.071996983319D-09 1.226953021118D+00
   -1.309439539909D-06 1.614545588382D-03 5.329027771950D-06 5.153648538589D+03
    1.728000000000D+05-1.303851604462D-08 1.553824777165D+00-7.450580596924D-09
    9.529066780795D-01 2.734062500000D+02 3.034795104609D+00-8.406421589773D-09
   -2.771544017362D-10 1.000000000000D+00 2.203000000000D+03 0.000000000000D+00
    2.000000000000D+00 0.000000000000D+00-7.450580596924D-09 7.060000000000D+02
    1.656180000000D+05 4.000000000000D+00
 7 22  3 29  0  0  0.0 3.181928768754D-04 1.591615728103D-12 0.000000000000D+00
    5.800000000000D+01 5.009375000000D+01 4.797342685722D-09 1.811242876485D+00
    2.501532435417D-06 1.577085349709D-02 8.590519428253D-06 5.153679811478D+03
    1.728000000000D+05-4.079192876816D-07 4.726193365038D-01-1.490116119385D-07
    9.512171452122D-01 2.110625000000D+02-2.282757980478D+00-8.232128615486D-09
    5.128785063056D-10 1.000000000000D+00 2.203000000000D+03 0.000000000000D+00
    2.000000000000D+00 0.000000000000D+00-1.117587089539D-08 5.800000000000D+01
    1.656180000000D+05 4.000000000000D+00
 9 22  3 29  0  0  0.0-3.471276722848D-04 2.273736754432D-12 0.000000000000D+00
    7.500000000000D+01-7.681250000000D+01 4.369824877889D-09-1.156396005244D+00
   -4.047527909279D-06 2.135801361874D-03 1.125037670135D-05 5.153604488373D+03
    1.728000000000D+05 0.000000000000D+00-5.987623868911D-01 3.352761268616D-08
    9.544700708353D-01 1.597187500000D+02 1.883166543114D+00-7.961045895231D-09
   -9.928985010651D-11 1.000000000000D+00 2.203000000000D+03 0.000000000000D+00
    2.000000000000D+00 0.000000000000D+00 1.396983861923D-09 7.500000000000D+01
    1.656180000000D+05 4.000000000000D+00
30 22  3 29  0  0  0.0-5.211071111262D-04-1.932676241267D-12 0.000000000000D+00
    9.200000000000D+01 5.521875000000D+01 5.143071372424D-09 1.862132642602D+00
    2.909451723099D-06 5.623162607662D-03 8.169561624527D-06 5.153792236328D+03
    1.728000000000D+05-1.192092895508D-07 4.851184456676D-01 7.823109626770D-08
    9.363657237566D-01 2.100312500000D+02-2.732576011011D+00-8.396421173216D-09
    4.589476884420D-10 1.000000000000D+00 2.203000000000D+03 0.000000000000D+00
    2.000000000000D+00 0.000000000000D+00 3.725290298462D-09 9.200000000000D+01
    1.656180000000D+05 4.000000000000D+00
20 22  3 29  0  0  0.0 5.160924047232D-04-2.273736754432D-13 0.000000000000D+00
    7.100000000000D+01-5.209375000000D+01 5.279148469152D-09-2.813289610679D+00
   -2.795830368996D-06 4.928772570565D-03 1.942738890648D-06 5.153535802841D+03
    1.728000000000D+05-1.378357410431D-07-1.782962651185D+00-3.352761268616D-08
    9.419789974805D-01 3.289375000000D+02-3.130297742517D+00-8.644645798482D-09
   -2.414386283166D-10 1.000000000000D+00 2.203000000000D+03 0.000000000000D+00
    2.000000000000D+00 0.000000000000D+00-8.381903171539D-09 7.100000000000D+01
    1.656180000000D+05 4.000000000000D+00
28 22  3 29  0  0  0.0 3.747344017029D-04-1.136868377216D-12 0.000000000000D+00
    6.000000000000D+01-2.128125000000D+01 4.720553772870D-09-1.140559672728D+00
   -9.648501873016D-07 1.668426103424D-02 6.325542926788D-06 5.153685613632D+03
    1.728000000000D+05-3.762543201447D-07 1.607861511211D+00 7.823109626770D-08
    9.685722032057D-01 2.684375000000D+02-1.283112276674D+00-8.411778955786D-09
   -2.314382117591D-10 1.000000000000D+00 2.203000000000D+03 0.000000000000D+00
    4.000000000000D+00 6.300000000000D+01-1.117587089539D-08 6.000000000000D+01
    1.656180000000D+05 4.000000000000D+00
 4 22  3 29  0  0  0.0-1.802491024137D-04 2.842170943040D-12 0.000000000000D+00
    1.530000000000D+02-7.815625000000D+01 4.151601502295D-09-2.065077296107D+00
   -4.112720489502D-06 1.766463625245D-03 1.152418553829D-05 5.153643064499D+03
    1.728000000000D+05-3.352761268616D-08-5.454816918334D-01 3.725290298462D-08
    9.614947108683D-01 1.587187500000D+02-2.998059133814D+00-7.756751671271D-09
   -3.500145795122D-11 1.000000000000D+00 2.203000000000D+03 0.000000000000D+00
    2.000000000000D+00 0.000000000000D+00-4.190951585770D-09 1.530000000000D+02
    1.656180000000D+05 4.000000000000D+00
 8 22  3 29  0  0  0.0-6.169220432639D-05-1.477928890381D-12 0.000000000000D+00
    1.620000000000D+02 1.150000000000D+01 4.269820712314D-09-1.580648042850D+00
    3.203749656677D-07 7.421758491546D-03 1.192092895508D-05 5.153743482590D+03
    1.728000000000D+05 5.587935447693D-09 2.541187008856D+00-1.117587089539D-07
    9.643368330027D-01 1.498125000000D+02 1.389020059861D-01-7.851755628567D-09
   -1.725071856167D-10 1.000000000000D+00 2.203000000000D+03 0.000000000000D+00
    2.800000000000D+00 0.000000000000D+00 5.122274160385D-09 1.620000000000D+02
    1.656180000000D+05 4.000000000000D+00
